0 SL-16 DEB
1 22381U 92093BW  13282.55029582  .00007555  00000-0  21218-2 0  8943
2 22381 070.5510 347.7061 0043648 191.3145 289.8954 14.45678879 75290
0 SL-16 DEB
1 22381U 92093BW  13286.96806975  .00006194  00000-0  17411-2 0  8961
2 22381 070.5517 337.7296 0043168 185.1238 241.9173 14.45734493 75935
0 SL-16 DEB
1 22381U 92093BW  13288.50060666  .00010655  00000-0  29805-2 0  8970
2 22381 070.5513 334.2687 0042992 182.8783 298.2202 14.45761125 76155
0 SL-16 DEB
1 22381U 92093BW  13289.94293747  .00008592  00000-0  24065-2 0  8988
2 22381 070.5508 331.0111 0042801 180.8429 245.0929 14.45782194 76368
0 SL-16 DEB
1 22381U 92093BW  13292.15517427  .00007104  00000-0  19918-2 0  8999
2 22381 070.5503 326.0140 0042497 177.6355 239.3763 14.45815752 76686
0 SL-16 DEB
1 22381U 92093BW  13294.17213806  .00009092  00000-0  25427-2 0  9000
2 22381 070.5503 321.4575 0042249 174.6138 297.6262 14.45842468 76975
0 SL-16 DEB
1 22381U 92093BW  13296.17929150  .00009573  00000-0  26750-2 0  9013
2 22381 070.5506 316.9232 0042013 171.5561 305.0652 14.45873950 77262
